OBJECT_NAME,OBJECT_ID,EPOCH,MEAN_MOTION,ECCENTRICITY,INCLINATION,RA_OF_ASC_NODE,ARG_OF_PERICENTER,MEAN_ANOMALY,EPHEMERIS_TYPE,CLASSIFICATION_TYPE,NORAD_CAT_ID,ELEMENT_SET_NO,REV_AT_EPOCH,BSTAR,MEAN_MOTION_DOT,MEAN_MOTION_DDOT
STARLINK-2734,2021-044V,2026-05-16T18:32:57.277824,15.31701426,.0001059,53.1588,157.3379,84.3384,275.7738,0,U,48657,999,27425,.6185437E-4,.1555E-4,0
STARLINK-2647,2021-044W,2026-05-17T01:15:52.764192,15.30185338,.0001415,53.1592,156.3015,88.1769,271.9394,0,U,48658,999,27429,.40075E-4,.827E-5,0
STARLINK-2717,2021-044X,2026-05-16T18:06:04.969152,15.31714163,.00011542,53.1596,157.3189,81.5386,278.5746,0,U,48659,999,27425,.49101827E-4,.1159E-4,0
STARLINK-2726,2021-044AA,2026-05-16T08:16:05.310624,15.29369912,.00014695,53.1568,159.6033,86.4810,273.6358,0,U,48662,999,27417,-.12146017E-3,-.3861E-4,0
STARLINK-2667,2021-044AB,2026-05-17T00:12:19.063008,15.31703084,.0001175,53.1591,146.1867,92.4290,267.6846,0,U,48663,999,27443,.54452E-4,.1325E-4,0
STARLINK-2666,2021-044AE,2026-05-16T18:40:42.232512,15.29352565,.00011986,53.1598,157.6458,88.8307,271.2830,0,U,48666,999,27423,-.20225437E-4,-.939E-5,0
STARLINK-2735,2021-044AF,2026-05-16T18:58:09.557760,15.29941198,.00011689,53.1595,157.5295,86.1702,273.9432,0,U,48667,999,27424,.16804554E-2,.49344E-3,0
STARLINK-2738,2021-044AG,2026-05-16T17:49:46.599744,15.31702189,.00011282,53.1577,147.4658,75.6108,284.5018,0,U,48668,999,27439,.33265331E-4,.667E-5,0
STARLINK-2707,2021-044AH,2026-05-16T18:03:14.803488,15.31701864,.0001208,53.1585,147.5579,82.5767,277.5372,0,U,48669,999,27438,.22843214E-4,.344E-5,0
STARLINK-2763,2021-044AJ,2026-05-17T00:32:31.223904,15.31699143,.0001552,53.1578,146.4206,120.6469,239.4685,0,U,48670,999,27442,.36196E-4,.758E-5,0
STARLINK-2745,2021-044AK,2026-05-16T18:43:44.634144,15.29353227,.00010889,53.1608,157.6364,86.0639,274.0486,0,U,48671,999,27423,.31539396E-4,.554E-5,0
STARLINK-2705,2021-044AL,2026-05-17T00:39:14.959008,15.31699056,.0001282,53.1603,146.5157,91.9840,268.1308,0,U,48672,999,27442,.5223E-4,.1256E-4,0
STARLINK-2711,2021-044AM,2026-05-16T18:30:46.745568,15.29361116,.00012644,53.1554,157.6416,88.0982,272.0164,0,U,48673,999,27423,-.3242204E-5,-.449E-5,0
STARLINK-2712,2021-044AN,2026-05-16T18:27:02.121120,15.29357834,.0001084,53.1587,157.6727,80.5772,279.5351,0,U,48674,999,27423,.235563E-4,.324E-5,0
STARLINK-2746,2021-044AQ,2026-05-16T18:17:54.181824,15.29370958,.00016688,53.1595,157.6950,61.1818,298.9350,0,U,48676,999,27423,.60893271E-4,.1402E-4,0
STARLINK-2615,2021-044AS,2026-05-16T18:09:52.653888,15.31706929,.00011924,53.1601,147.2500,87.6478,272.4660,0,U,48678,999,27439,.34353069E-4,.701E-5,0
STARLINK-2648,2021-044AT,2026-05-17T00:00:02.000160,15.30170191,.0001197,53.1580,156.5669,86.2865,221.5678,0,U,48679,999,571,.15714E-2,.46429E-3,0
STARLINK-2725,2021-044AV,2026-05-17T04:00:01.998720,15.31709583,.000106,53.1590,117.1646,90.8265,281.1284,0,U,48681,999,584,-.42823E-3,-.13633E-3,0
STARLINK-2743,2021-044AW,2026-05-17T04:13:04.431072,15.31719336,.0001175,53.1597,106.5099,95.8660,264.2476,0,U,48682,999,27499,.43183E-4,.976E-5,0
STARLINK-2756,2021-044AX,2026-05-17T03:59:41.193600,15.31682518,.0001325,53.1596,106.7471,94.9418,265.1735,0,U,48683,999,27499,-.21565E-3,-.7047E-4,0
STARLINK-2741,2021-044AY,2026-05-17T02:56:58.813152,15.31699825,.000128,53.1581,119.6652,89.8644,270.2504,0,U,48684,999,27481,.16004E-4,.131E-5,0
STARLINK-2751,2021-044AZ,2026-05-17T04:06:22.004064,15.31703202,.0001311,53.1606,106.4389,93.3475,266.7677,0,U,48685,999,27500,-.16733E-3,-.5554E-4,0
STARLINK-2629,2021-044BA,2026-05-17T05:30:21.938976,15.31706450,.0001322,53.1595,116.6245,90.2469,269.8684,0,U,48686,999,27485,.69349E-4,.1788E-4,0
STARLINK-2627,2021-044BB,2026-05-17T03:05:56.991840,15.31714592,.000135,53.1611,106.7054,89.8471,270.2685,0,U,48687,999,27498,.49523E-4,.1172E-4,0
STARLINK-2742,2021-044BC,2026-05-17T03:39:32.746176,15.31715065,.0001706,53.1604,106.7950,138.9786,221.1344,0,U,48688,999,27498,-.1168E-3,-.399E-4,0
STARLINK-2740,2021-044BE,2026-05-17T03:16:36.763968,15.31697168,.0001396,53.1592,117.0138,104.8524,255.2632,0,U,48690,999,27484,.35635E-4,.741E-5,0
STARLINK-2750,2021-044BF,2026-05-17T05:10:13.506240,15.31700827,.0001533,53.1611,116.6264,87.8932,272.2244,0,U,48691,999,27485,.57779E-4,.1428E-4,0
STARLINK-2752,2021-044BG,2026-05-17T04:03:04.224096,15.31699525,.0001289,53.1610,116.6337,92.4005,267.7144,0,U,48692,999,27485,.35456E-4,.735E-5,0
STARLINK-2618,2021-044BH,2026-05-17T05:24:06.792768,15.31686803,.0001295,53.1596,116.5122,88.7956,271.3193,0,U,48693,999,27486,.10557E-3,.2911E-4,0
STARLINK-2748,2021-044BJ,2026-05-17T05:11:19.184928,15.31698928,.0001372,53.1602,119.8020,87.8758,272.2401,0,U,48694,999,27481,.41249E-4,.915E-5,0
