STARLINK-2734           
1 48657U 21044V   26136.77288516  .00001555  00000+0  61854-4 0  9996
2 48657  53.1588 157.3379 0001059  84.3384 275.7738 15.31701426274251
STARLINK-2647           
1 48658U 21044W   26137.05269403  .00000827  00000+0  40075-4 0  9996
2 48658  53.1592 156.3015 0001415  88.1769 271.9394 15.30185338274295
STARLINK-2717           
1 48659U 21044X   26136.75422418  .00001159  00000+0  49102-4 0  9999
2 48659  53.1596 157.3189 0001154  81.5386 278.5746 15.31714163274250
STARLINK-2726           
1 48662U 21044AA  26136.34450591 -.00003861  00000+0 -12146-3 0  9992
2 48662  53.1568 159.6033 0001469  86.4810 273.6358 15.29369912274172
STARLINK-2667           
1 48663U 21044AB  26137.00855397  .00001325  00000+0  54452-4 0  9998
2 48663  53.1591 146.1867 0001175  92.4290 267.6846 15.31703084274437
STARLINK-2666           
1 48666U 21044AE  26136.77826658 -.00000939  00000+0 -20225-4 0  9995
2 48666  53.1598 157.6458 0001198  88.8307 271.2830 15.29352565274236
STARLINK-2735           
1 48667U 21044AF  26136.79038840  .00049344  00000+0  16805-2 0  9994
2 48667  53.1595 157.5295 0001168  86.1702 273.9432 15.29941198274243
STARLINK-2738           
1 48668U 21044AG  26136.74290046  .00000667  00000+0  33265-4 0  9994
2 48668  53.1577 147.4658 0001128  75.6108 284.5018 15.31702189274396
STARLINK-2707           
1 48669U 21044AH  26136.75225467  .00000344  00000+0  22843-4 0  9993
2 48669  53.1585 147.5579 0001208  82.5767 277.5372 15.31701864274389
STARLINK-2763           
1 48670U 21044AJ  26137.02258361  .00000758  00000+0  36196-4 0  9990
2 48670  53.1578 146.4206 0001552 120.6469 239.4685 15.31699143274428
STARLINK-2745           
1 48671U 21044AK  26136.78037771  .00000554  00000+0  31539-4 0  9993
2 48671  53.1608 157.6364 0001088  86.0639 274.0486 15.29353227274230
STARLINK-2705           
1 48672U 21044AL  26137.02725647  .00001256  00000+0  52230-4 0  9999
2 48672  53.1603 146.5157 0001282  91.9840 268.1308 15.31699056274422
STARLINK-2711           
1 48673U 21044AM  26136.77137437 -.00000449  00000+0 -32422-5 0  9992
2 48673  53.1554 157.6416 0001264  88.0982 272.0164 15.29361116274236
STARLINK-2712           
1 48674U 21044AN  26136.76877455  .00000324  00000+0  23556-4 0  9990
2 48674  53.1587 157.6727 0001084  80.5772 279.5351 15.29357834274234
STARLINK-2746           
1 48676U 21044AQ  26136.76243266  .00001402  00000+0  60893-4 0  9992
2 48676  53.1595 157.6950 0001668  61.1818 298.9350 15.29370958274233
STARLINK-2615           
1 48678U 21044AS  26136.75685942  .00000701  00000+0  34353-4 0  9997
2 48678  53.1601 147.2500 0001192  87.6478 272.4660 15.31706929274398
STARLINK-2648           
1 48679U 21044AT  26137.00002315  .00046429  00000+0  15714-2 0  9999
2 48679  53.1580 156.5669 0001197  86.2865 221.5678 15.30170191  5711
STARLINK-2725           
1 48681U 21044AV  26137.16668980 -.00013633  00000+0 -42823-3 0  9990
2 48681  53.1590 117.1646 0001060  90.8265 281.1284 15.31709583  5840
STARLINK-2743           
1 48682U 21044AW  26137.17574573  .00000976  00000+0  43183-4 0  9991
2 48682  53.1597 106.5099 0001175  95.8660 264.2476 15.31719336274999
STARLINK-2756           
1 48683U 21044AX  26137.16644900 -.00007047  00000+0 -21565-3 0  9990
2 48683  53.1596 106.7471 0001325  94.9418 265.1735 15.31682518274992
STARLINK-2741           
1 48684U 21044AY  26137.12290293  .00000131  00000+0  16004-4 0  9997
2 48684  53.1581 119.6652 0001280  89.8644 270.2504 15.31699825274816
STARLINK-2751           
1 48685U 21044AZ  26137.17108801 -.00005554  00000+0 -16733-3 0  9990
2 48685  53.1606 106.4389 0001311  93.3475 266.7677 15.31703202275001
STARLINK-2629           
1 48686U 21044BA  26137.22942059  .00001788  00000+0  69349-4 0  9993
2 48686  53.1595 116.6245 0001322  90.2469 269.8684 15.31706450274856
STARLINK-2627           
1 48687U 21044BB  26137.12913185  .00001172  00000+0  49523-4 0  9990
2 48687  53.1611 106.7054 0001350  89.8471 270.2685 15.31714592274989
STARLINK-2742           
1 48688U 21044BC  26137.15246234 -.00003990  00000+0 -11680-3 0  9992
2 48688  53.1604 106.7950 0001706 138.9786 221.1344 15.31715065274980
STARLINK-2740           
1 48690U 21044BE  26137.13653662  .00000741  00000+0  35635-4 0  9996
2 48690  53.1592 117.0138 0001396 104.8524 255.2632 15.31697168274845
STARLINK-2750           
1 48691U 21044BF  26137.21543410  .00001428  00000+0  57779-4 0  9991
2 48691  53.1611 116.6264 0001533  87.8932 272.2244 15.31700827274855
STARLINK-2752           
1 48692U 21044BG  26137.16879889  .00000735  00000+0  35456-4 0  9996
2 48692  53.1610 116.6337 0001289  92.4005 267.7144 15.31699525274857
STARLINK-2618           
1 48693U 21044BH  26137.22507862  .00002911  00000+0  10557-3 0  9995
2 48693  53.1596 116.5122 0001295  88.7956 271.3193 15.31686803274863
STARLINK-2748           
1 48694U 21044BJ  26137.21619427  .00000915  00000+0  41249-4 0  9991
2 48694  53.1602 119.8020 0001372  87.8758 272.2401 15.31698928274819
